{"type": "FeatureCollection", "features": [ {"type": "Feature", "properties": {"norad_id": 34375, "name": "IRIDIUM 33 DEB", "group": "iridium-33-debris", "lat": -7.268894176837684, "lon": -175.99930250801046, "alt_km": 898.590470459837, "timestamp": "2025-12-08T08:59:01.151485+00:00", "meta": {"OBJECT_NAME": "IRIDIUM 33 DEB", "OBJECT_ID": "1997-051FT", "EPOCH": "2025-12-07T19:32:32.493408", "MEAN_MOTION": 14.17979319, "ECCENTRICITY": 0.01029361, "INCLINATION": 86.4328, "RA_OF_ASC_NODE": 184.6823, "ARG_OF_PERICENTER": 142.2394, "MEAN_ANOMALY": 234.0896, "EPHEMERIS_TYPE": 0, "CLASSIFICATION_TYPE": "U", "NORAD_CAT_ID": 34375, "ELEMENT_SET_NO": 999, "REV_AT_EPOCH": 86642, "BSTAR": 0.00068270447, "MEAN_MOTION_DOT": 1.491e-05, "MEAN_MOTION_DDOT": 0}, "tle": {"line1": "1 34375U 97051FT  25341.81426497  .00001491  00000+0  68270-3 0  9990", "line2": "2 34375  86.4328 184.6823 0102936 142.2394 234.0896 14.17979319866422"}}, "geometry": {"type": "Point", "coordinates": [-175.99930250801046, -7.268894176837684]}}, {"type": "Feature", "properties": {"norad_id": 34376, "name": "IRIDIUM 33 DEB", "group": "iridium-33-debris", "lat": 26.701540505470874, "lon": 10.36828811274278, "alt_km": 701.2536932589337, "timestamp": "2025-12-08T08:59:01.151495+00:00", "meta": {"OBJECT_NAME": "IRIDIUM 33 DEB", "OBJECT_ID": "1997-051FU", "EPOCH": "2025-12-07T19:43:26.419584", "MEAN_MOTION": 14.62463862, "ECCENTRICITY": 0.00266038, "INCLINATION": 86.2983, "RA_OF_ASC_NODE": 8.7505, "ARG_OF_PERICENTER": 183.3452, "MEAN_ANOMALY": 176.7586, "EPHEMERIS_TYPE": 0, "CLASSIFICATION_TYPE": "U", "NORAD_CAT_ID": 34376, "ELEMENT_SET_NO": 999, "REV_AT_EPOCH": 87935, "BSTAR": 0.0023918426, "MEAN_MOTION_DOT": 0.00012205, "MEAN_MOTION_DDOT": 0}, "tle": {"line1": "1 34376U 97051FU  25341.82183356  .00012205  00000+0  23918-2 0  9990", "line2": "2 34376  86.2983   8.7505 0026603 183.3452 176.7586 14.62463862879353"}}, "geometry": {"type": "Point", "coordinates": [10.36828811274278, 26.701540505470874]}}, {"type": "Feature", "properties": {"norad_id": 34486, "name": "IRIDIUM 33 DEB", "group": "iridium-33-debris", "lat": 82.77184002850625, "lon": 43.86500303091087, "alt_km": 566.686172776439, "timestamp": "2025-12-08T08:59:01.151505+00:00", "meta": {"OBJECT_NAME": "IRIDIUM 33 DEB", "OBJECT_ID": "1997-051GB", "EPOCH": "2025-12-07T20:32:12.361632", "MEAN_MOTION": 14.95471709, "ECCENTRICITY": 0.00131901, "INCLINATION": 86.393, "RA_OF_ASC_NODE": 14.2783, "ARG_OF_PERICENTER": 128.7579, "MEAN_ANOMALY": 44.8246, "EPHEMERIS_TYPE": 0, "CLASSIFICATION_TYPE": "U", "NORAD_CAT_ID": 34486, "ELEMENT_SET_NO": 999, "REV_AT_EPOCH": 88913, "BSTAR": 0.003459749, "MEAN_MOTION_DOT": 0.00038525, "MEAN_MOTION_DDOT": 0}, "tle": {"line1": "1 34486U 97051GB  25341.85569863  .00038525  00000+0  34597-2 0  9994", "line2": "2 34486  86.3930  14.2783 0013190 128.7579  44.8246 14.95471709889138"}}, "geometry": {"type": "Point", "coordinates": [43.86500303091087, 82.77184002850625]}}, {"type": "Feature", "properties": {"norad_id": 34487, "name": "IRIDIUM 33 DEB", "group": "iridium-33-debris", "lat": -22.28577147359495, "lon": -164.24143808080103, "alt_km": 741.8761226067209, "timestamp": "2025-12-08T08:59:01.151516+00:00", "meta": {"OBJECT_NAME": "IRIDIUM 33 DEB", "OBJECT_ID": "1997-051GC", "EPOCH": "2025-12-07T08:51:00.080352", "MEAN_MOTION": 14.43206052, "ECCENTRICITY": 0.0032325, "INCLINATION": 86.344, "RA_OF_ASC_NODE": 14.6897, "ARG_OF_PERICENTER": 145.3216, "MEAN_ANOMALY": 235.4285, "EPHEMERIS_TYPE": 0, "CLASSIFICATION_TYPE": "U", "NORAD_CAT_ID": 34487, "ELEMENT_SET_NO": 999, "REV_AT_EPOCH": 88171, "BSTAR": 0.00034860928, "MEAN_MOTION_DOT": 1.199e-05, "MEAN_MOTION_DDOT": 0}, "tle": {"line1": "1 34487U 97051GC  25341.36875093  .00001199  00000+0  34861-3 0  9998", "line2": "2 34487  86.3440  14.6897 0032325 145.3216 235.4285 14.43206052881716"}}, "geometry": {"type": "Point", "coordinates": [-164.24143808080103, -22.28577147359495]}}, {"type": "Feature", "properties": {"norad_id": 34488, "name": "IRIDIUM 33 DEB", "group": "iridium-33-debris", "lat": -86.32185600455348, "lon": -141.11167387804963, "alt_km": 497.89027622151207, "timestamp": "2025-12-08T08:59:01.151526+00:00", "meta": {"OBJECT_NAME": "IRIDIUM 33 DEB", "OBJECT_ID": "1997-051GD", "EPOCH": "2025-12-07T20:48:04.872384", "MEAN_MOTION": 15.27700867, "ECCENTRICITY": 0.00145083, "INCLINATION": 86.3249, "RA_OF_ASC_NODE": 308.2225, "ARG_OF_PERICENTER": 58.5485, "MEAN_ANOMALY": 301.7178, "EPHEMERIS_TYPE": 0, "CLASSIFICATION_TYPE": "U", "NORAD_CAT_ID": 34488, "ELEMENT_SET_NO": 999, "REV_AT_EPOCH": 89165, "BSTAR": 0.0065853927, "MEAN_MOTION_DOT": 0.00182761, "MEAN_MOTION_DDOT": 0}, "tle": {"line1": "1 34488U 97051GD  25341.86672306  .00182761  00000+0  65854-2 0  9996", "line2": "2 34488  86.3249 308.2225 0014508  58.5485 301.7178 15.27700867891655"}}, "geometry": {"type": "Point", "coordinates": [-141.11167387804963, -86.32185600455348]}}, {"type": "Feature", "properties": {"norad_id": 34492, "name": "IRIDIUM 33 DEB", "group": "iridium-33-debris", "lat": -25.963456697422814, "lon": 158.11385424678042, "alt_km": 717.2752507330906, "timestamp": "2025-12-08T08:59:01.151536+00:00", "meta": {"OBJECT_NAME": "IRIDIUM 33 DEB", "OBJECT_ID": "1997-051GH", "EPOCH": "2025-12-07T23:50:44.784960", "MEAN_MOTION": 14.25534668, "ECCENTRICITY": 0.0189621, "INCLINATION": 86.4724, "RA_OF_ASC_NODE": 336.5463, "ARG_OF_PERICENTER": 253.6464, "MEAN_ANOMALY": 161.0806, "EPHEMERIS_TYPE": 0, "CLASSIFICATION_TYPE": "U", "NORAD_CAT_ID": 34492, "ELEMENT_SET_NO": 999, "REV_AT_EPOCH": 84991, "BSTAR": 0.0068533726, "MEAN_MOTION_DOT": 0.00019616, "MEAN_MOTION_DDOT": 0}, "tle": {"line1": "1 34492U 97051GH  25341.99357390  .00019616  00000+0  68534-2 0  9994", "line2": "2 34492  86.4724 336.5463 0189621 253.6464 161.0806 14.25534668849919"}}, "geometry": {"type": "Point", "coordinates": [158.11385424678042, -25.963456697422814]}}, {"type": "Feature", "properties": {"norad_id": 34497, "name": "IRIDIUM 33 DEB", "group": "iridium-33-debris", "lat": 58.02253814941399, "lon": 60.251211317160994, "alt_km": 769.8565358909473, "timestamp": "2025-12-08T08:59:01.151547+00:00", "meta": {"OBJECT_NAME": "IRIDIUM 33 DEB", "OBJECT_ID": "1997-051GN", "EPOCH": "2025-12-07T04:14:57.003360", "MEAN_MOTION": 14.27428897, "ECCENTRICITY": 0.00793764, "INCLINATION": 86.2782, "RA_OF_ASC_NODE": 54.778, "ARG_OF_PERICENTER": 357.6873, "MEAN_ANOMALY": 31.1496, "EPHEMERIS_TYPE": 0, "CLASSIFICATION_TYPE": "U", "NORAD_CAT_ID": 34497, "ELEMENT_SET_NO": 999, "REV_AT_EPOCH": 86804, "BSTAR": 0.0010122974, "MEAN_MOTION_DOT": 2.585e-05, "MEAN_MOTION_DDOT": 0}, "tle": {"line1": "1 34497U 97051GN  25341.17704865  .00002585  00000+0  10123-2 0  9990", "line2": "2 34497  86.2782  54.7780 0079376 357.6873  31.1496 14.27428897868046"}}, "geometry": {"type": "Point", "coordinates": [60.251211317160994, 58.02253814941399]}}, {"type": "Feature", "properties": {"norad_id": 34508, "name": "IRIDIUM 33 DEB", "group": "iridium-33-debris", "lat": 43.00873209987287, "lon": 107.88795933548246, "alt_km": 798.2636060822224, "timestamp": "2025-12-08T08:59:01.151557+00:00", "meta": {"OBJECT_NAME": "IRIDIUM 33 DEB", "OBJECT_ID": "1997-051GZ", "EPOCH": "2025-12-07T19:25:27.527232", "MEAN_MOTION": 14.38361799, "ECCENTRICITY": 0.00657554, "INCLINATION": 86.3707, "RA_OF_ASC_NODE": 104.7333, "ARG_OF_PERICENTER": 188.9848, "MEAN_ANOMALY": 171.0179, "EPHEMERIS_TYPE": 0, "CLASSIFICATION_TYPE": "U", "NORAD_CAT_ID": 34508, "ELEMENT_SET_NO": 999, "REV_AT_EPOCH": 87238, "BSTAR": 0.0028505421, "MEAN_MOTION_DOT": 8.927e-05, "MEAN_MOTION_DDOT": 0}, "tle": {"line1": "1 34508U 97051GZ  25341.80934638  .00008927  00000+0  28505-2 0  9995", "line2": "2 34508  86.3707 104.7333 0065755 188.9848 171.0179 14.38361799872383"}}, "geometry": {"type": "Point", "coordinates": [107.88795933548246, 43.00873209987287]}}, {"type": "Feature", "properties": {"norad_id": 34521, "name": "IRIDIUM 33 DEB", "group": "iridium-33-debris", "lat": -10.129933661883612, "lon": -146.8817869669888, "alt_km": 686.4268469452154, "timestamp": "2025-12-08T08:59:01.151567+00:00", "meta": {"OBJECT_NAME": "IRIDIUM 33 DEB", "OBJECT_ID": "1997-051HN", "EPOCH": "2025-12-07T14:03:52.998048", "MEAN_MOTION": 14.63299269, "ECCENTRICITY": 0.00011103, "INCLINATION": 86.38, "RA_OF_ASC_NODE": 32.817, "ARG_OF_PERICENTER": 253.2425, "MEAN_ANOMALY": 106.8665, "EPHEMERIS_TYPE": 0, "CLASSIFICATION_TYPE": "U", "NORAD_CAT_ID": 34521, "ELEMENT_SET_NO": 999, "REV_AT_EPOCH": 88397, "BSTAR": 0.0015075836, "MEAN_MOTION_DOT": 7.799e-05, "MEAN_MOTION_DDOT": 0}, "tle": {"line1": "1 34521U 97051HN  25341.58603007  .00007799  00000+0  15076-2 0  9993", "line2": "2 34521  86.3800  32.8170 0001110 253.2425 106.8665 14.63299269883977"}}, "geometry": {"type": "Point", "coordinates": [-146.8817869669888, -10.129933661883612]}}, {"type": "Feature", "properties": {"norad_id": 34525, "name": "IRIDIUM 33 DEB", "group": "iridium-33-debris", "lat": -30.298268141984675, "lon": 46.583172293448165, "alt_km": 758.3345510246163, "timestamp": "2025-12-08T08:59:01.151577+00:00", "meta": {"OBJECT_NAME": "IRIDIUM 33 DEB", "OBJECT_ID": "1997-051HS", "EPOCH": "2025-12-07T15:31:26.608800", "MEAN_MOTION": 14.42887569, "ECCENTRICITY": 0.00066123, "INCLINATION": 86.3731, "RA_OF_ASC_NODE": 49.0175, "ARG_OF_PERICENTER": 106.9263, "MEAN_ANOMALY": 46.4385, "EPHEMERIS_TYPE": 0, "CLASSIFICATION_TYPE": "U", "NORAD_CAT_ID": 34525, "ELEMENT_SET_NO": 999, "REV_AT_EPOCH": 88014, "BSTAR": 0.00069229009, "MEAN_MOTION_DOT": 2.331e-05, "MEAN_MOTION_DDOT": 0}, "tle": {"line1": "1 34525U 97051HS  25341.64683575  .00002331  00000+0  69229-3 0  9999", "line2": "2 34525  86.3731  49.0175 0006612 106.9263  46.4385 14.42887569880142"}}, "geometry": {"type": "Point", "coordinates": [46.583172293448165, -30.298268141984675]}}]}